{
    "links": {
        "self": "http://www.neowsapp.com/rest/v1/neo/3879732?api_key=iIulBulltgU6a56xZRHN4H3l9WmuAYTsLGpBGhQ2"
    },
    "id": "3879732",
    "neo_reference_id": "3879732",
    "name": "(2019 UB7)",
    "designation": "2019 UB7",
    "nasa_jpl_url": "http://ssd.jpl.nasa.gov/sbdb.cgi?sstr=3879732",
    "absolute_magnitude_h": 24.2,
    "estimated_diameter": {
        "kilometers": {
            "estimated_diameter_min": 0.0384197891,
            "estimated_diameter_max": 0.0859092601
        },
        "meters": {
            "estimated_diameter_min": 38.4197891064,
            "estimated_diameter_max": 85.9092601232
        },
        "miles": {
            "estimated_diameter_min": 0.0238729428,
            "estimated_diameter_max": 0.0533815229
        },
        "feet": {
            "estimated_diameter_min": 126.0491808919,
            "estimated_diameter_max": 281.8545369825
        }
    },
    "is_potentially_hazardous_asteroid": false,
    "close_approach_data": [
        {
            "close_approach_date": "2019-11-10",
            "close_approach_date_full": "2019-Nov-10 23:42",
            "epoch_date_close_approach": 1573429320000,
            "relative_velocity": {
                "kilometers_per_second": "17.5195302561",
                "kilometers_per_hour": "63070.3089219614",
                "miles_per_hour": "39189.437229871"
            },
            "miss_distance": {
                "astronomical": "0.0350871002",
                "lunar": "13.6488819778",
                "kilometers": "5248955.454396574",
                "miles": "3261549.6792937612"
            },
            "orbiting_body": "Earth"
        }
    ],
    "orbital_data": {
        "orbit_id": "4",
        "orbit_determination_date": "2019-11-14 09:20:20",
        "first_observation_date": "2019-10-23",
        "last_observation_date": "2019-11-09",
        "data_arc_in_days": 17,
        "observations_used": 37,
        "orbit_uncertainty": "8",
        "minimum_orbit_intersection": ".0345864",
        "jupiter_tisserand_invariant": "3.494",
        "epoch_osculation": "2458782.5",
        "eccentricity": ".6576228590760901",
        "semi_major_axis": "2.039426951009873",
        "inclination": "2.068962728364497",
        "ascending_node_longitude": "303.4816651574495",
        "orbital_period": "1063.801646521827",
        "perihelion_distance": ".6982531686099274",
        "perihelion_argument": "179.9315345671923",
        "aphelion_distance": "3.380600733409819",
        "perihelion_time": "2458842.936930608528",
        "mean_anomaly": "339.5476016697219",
        "mean_motion": ".3384089516847852",
        "equinox": "J2000",
        "orbit_class": {
            "orbit_class_type": "APO",
            "orbit_class_description": "Near-Earth asteroid orbits which cross the Earth’s orbit similar to that of 1862 Apollo",
            "orbit_class_range": "a (semi-major axis) > 1.0 AU; q (perihelion) < 1.017 AU"
        }
    },
    "is_sentry_object": false
}